#aV2006 10  6  0  0   .00000000      96 DD+AD WGS84 FIT  NGA
## 1395 432000.00000000   900.00000000 54014  .0000000000000
+   29     1  2  3  4  5  6  7  8  9 10 11 13 14 15 16 17 18
+         19 20 21 22 23 24 25 26 27 28 29 30  0  0  0  0  0
+          0  0  0  0  0  0  0  0  0  0  0  0  0  0  0  0  0
+          0  0  0  0  0  0  0  0  0  0  0  0  0  0  0  0  0
+          0  0  0  0  0  0  0  0  0  0  0  0  0  0  0  0  0
++         0  0  0  0  0  0  0  0  0  0  0  0  0  0  0  0  0
++         0  0  0  0  0  0  0  0  0  0  0  0  0  0  0  0  0
++         0  0  0  0  0  0  0  0  0  0  0  0  0  0  0  0  0
++         0  0  0  0  0  0  0  0  0  0  0  0  0  0  0  0  0
++         0  0  0  0  0  0  0  0  0  0  0  0  0  0  0  0  0
%c cc cc ccc ccc cccc cccc cccc cccc ccccc ccccc ccccc ccccc
%c cc cc ccc ccc cccc cccc cccc cccc ccccc ccccc ccccc ccccc
%f  0.0000000  0.000000000  0.00000000000  0.000000000000000
%f  0.0000000  0.000000000  0.00000000000  0.000000000000000
%i    0    0    0    0      0      0      0      0         0
%i    0    0    0    0      0      0      0      0         0
/*      NGA, ST. LOUIS,MO.                                  
/*   EPHEMERIS COMPUTED FROM  3 DAYS OF DATA                
/* CCCCCCCCCCCCCCCCCCCCCCCCCCCCCCCCCCCCCCCCCCCCCCCCCCCCCCCCC
/* CCCCCCCCCCCCCCCCCCCCCCCCCCCCCCCCCCCCCCCCCCCCCCCCCCCCCCCCC
*  2006 10  6 10 15   .00000000                                                 
P  1 -21250.389730 -15664.693576   3426.869373     80.902936                    
V  1   4430.883397    582.314536  31940.620830       .022181                    
P  2  13094.646186  15115.819750 -17831.670607     42.021651                    
V  2  -1192.840798  22146.075411  17910.224533       .037649                    
P  3 -24317.410613 -11109.677019   -546.573913    237.164863                    
V  3   1885.384778  -3113.185424 -30762.778899       .696063                    
P  4   5984.129655  24322.069916  -8319.769637    320.245268                    
V  4  -3248.554766  10629.736959  29234.880098       .051872                    
P  5  22908.588491 -12397.387299   4517.201086    359.512189                    
V  5  -2808.698437   6468.480352  30644.173633       .059325                    
P  6   9486.846175 -12692.902706 -21128.414766    585.646329                    
V  6  24211.450376  12778.237139   3107.007231      -.070447                    
P  7 -14463.618953 -17674.565126 -13147.922962    517.711214                    
V  7  16934.272060   4791.271876 -24534.452854      -.053971                    
P  8   -906.272342  26306.983364   -320.085487    -82.081273                    
V  8  -2746.482295   -314.047034 -32338.841468      -.012665                    
P  9  14448.906990  -5070.876418  21103.526906     39.057069                    
V  9   2178.969845  28107.631883   5365.874320       .015201                    
P 10  19423.765000   3150.645045 -18080.686616     90.697318                    
V 10 -19071.637018  12222.670429 -18153.545253       .005796                    
P 11 -14723.714444   9032.065327  20053.020035    353.824056                    
V 11  -5725.810140 -25373.543227   7467.272533       .018588                    
P 13  -7869.605545  12235.327239 -22313.578630    100.739420                    
V 13 -24063.052082 -14349.790922    659.392811       .034409                    
P 14  -9900.084613 -18329.232781  16593.481267     -4.079268                    
V 14  18687.323893   9316.100993  21464.626232       .008046                    
P 15    743.948633 -26283.453812   1099.944139    -11.478945                    
V 15   3466.446465  -1379.166733 -31868.955491      -.081564                    
P 16 -16705.605928  -6112.242522 -19686.703054     79.533157                    
V 16  21114.550405 -13654.262631 -13506.247056       .034637                    
P 17   9462.019489  18546.997173  16547.899397     93.689070                    
V 17 -19178.396016  -8686.797772  20591.924004      -.011915                    
P 18  13612.431330 -18247.267486  13531.999698   -250.430067                    
V 18  16243.001666  -5951.159440 -24910.431481      -.007316                    
P 19 -23550.962389  -5926.876104  10948.116346     21.849315                    
V 19 -10261.518544  -9431.923752 -27364.020195       .034176                    
P 20 -22750.645077  13669.689523    334.297974    -22.176247                    
V 20  -1122.665289  -2844.237310  31654.832992       .001418                    
P 21   5544.028667 -24695.113698  -6970.628933     55.900603                    
V 21   3537.580343   9195.053318 -29943.310911       .017014                    
P 22    528.910905 -16881.957177  20654.577964    139.729105                    
V 22  23298.379837 -11332.224776  -9961.356172       .029411                    
P 23 -18528.321335   4381.649829 -18687.784831    138.455994                    
V 23 -19925.352918 -12428.227245  16734.579585       .003706                    
P 24   3866.081939  25201.662228  -6742.478367     41.684329                    
V 24  -3322.441371   8789.835617  30289.957923       .031428                    
P 25 -11071.417385 -20390.985963 -12389.567402    367.643795                    
V 25    836.606041 -16630.280282  25944.761790       .181047                    
P 26  23987.308826   7223.860603   9243.056324   -282.311656                    
V 26   9732.068695   7332.602749 -29132.526532      -.153228                    
P 27  -4830.005534  23896.708903  -9541.522781     71.396509                    
V 27  -3952.616558 -12832.608940 -28631.599722       .018692                    
P 28  -4178.837579  17936.853566  19305.531891     17.132362                    
V 28 -21557.364740  10660.494713 -15144.785084      -.008631                    
P 29  24525.303892   8518.096363   6549.774766     35.559706                    
V 29   6192.040837   5195.231839 -30723.836418       .509001                    
P 30  17478.915289 -18330.238118  -8097.973530     12.284329                    
V 30  10027.751625  -2800.544843  29174.115308       .011652                    
EOF
